start=new Date('2023-07-02T00:00:00.000Z').valueOf();
sats=[{"CLASSIFICATION_TYPE":"U","TLE_LINE1":"1 55780U 23028AR  23182.58334491 -.00971354  00000-0 -47528-1 0  9991","SEMIMAJOR_AXIS":"6881.368","PERIOD":"94.683","SITE":"AFWTR","MEAN_ANOMALY":"110.2628","LAUNCH_DATE":"2023-03-03","MEAN_MOTION":"15.20864802","COUNTRY_CODE":"US","MEAN_MOTION_DOT":"-0.00971354","EPOCH":"2023-07-01T14:00:01.000224","PERIAPSIS":"501.018","CENTER_NAME":"EARTH","GP_ID":"234648270","FILE":"3946702","DECAY_DATE":null,"OBJECT_NAME":"STARLINK-5819","APOAPSIS":"505.448","TLE_LINE2":"2 55780  69.9976 181.0366 0003219 272.7795 110.2628 15.20864802 19413","RA_OF_ASC_NODE":"181.0366","INCLINATION":"69.9976","OBJECT_TYPE":"PAYLOAD","ARG_OF_PERICENTER":"272.7795","TIME_SYSTEM":"UTC","REF_FRAME":"TEME","ECCENTRICITY":"0.00032190","OBJECT_ID":"2023-028AR","NORAD_CAT_ID":"55780","ELEMENT_SET_NO":"999","EPHEMERIS_TYPE":"0","RCS_SIZE":"LARGE","BSTAR":"-0.04752800000000","REV_AT_EPOCH":"1941","MEAN_MOTION_DDOT":"0.0000000000000","MEAN_ELEMENT_THEORY":"SGP4"},{"APOAPSIS":"497.564","TLE_LINE2":"2 55781  69.9983 181.8356 0003030 275.1046 134.3100 15.23438122 19390","RA_OF_ASC_NODE":"181.8356","INCLINATION":"69.9983","OBJECT_NAME":"STARLINK-5820","EPOCH":"2023-07-01T14:00:01.000224","PERIAPSIS":"493.399","CENTER_NAME":"EARTH","FILE":"3946702","GP_ID":"234648267","DECAY_DATE":null,"COUNTRY_CODE":"US","MEAN_MOTION_DOT":"-0.00665742","MEAN_ANOMALY":"134.3100","LAUNCH_DATE":"2023-03-03","MEAN_MOTION":"15.23438122","PERIOD":"94.523","SITE":"AFWTR","CLASSIFICATION_TYPE":"U","TLE_LINE1":"1 55781U 23028AS  23182.58334491 -.00665742  00000-0 -30064-1 0  9990","SEMIMAJOR_AXIS":"6873.616","MEAN_ELEMENT_THEORY":"SGP4","BSTAR":"-0.03006400000000","REV_AT_EPOCH":"1939","MEAN_MOTION_DDOT":"0.0000000000000","RCS_SIZE":"LARGE","ELEMENT_SET_NO":"999","EPHEMERIS_TYPE":"0","NORAD_CAT_ID":"55781","TIME_SYSTEM":"UTC","REF_FRAME":"TEME","ECCENTRICITY":"0.00030300","OBJECT_ID":"2023-028AS","OBJECT_TYPE":"PAYLOAD","ARG_OF_PERICENTER":"275.1046"},{"SITE":"AFWTR","PERIOD":"91.724","TLE_LINE1":"1 55782U 23028AT  23182.34718172 -.00000007  00000-0  17107-5 0  9990","SEMIMAJOR_AXIS":"6737.263","CLASSIFICATION_TYPE":"U","MEAN_MOTION_DOT":"-0.00000007","COUNTRY_CODE":"US","MEAN_MOTION":"15.69919988","LAUNCH_DATE":"2023-03-03","MEAN_ANOMALY":"111.6375","GP_ID":"234648261","FILE":"3946702","DECAY_DATE":null,"CENTER_NAME":"EARTH","PERIAPSIS":"356.847","EPOCH":"2023-07-01T08:19:56.500608","RA_OF_ASC_NODE":"178.9656","INCLINATION":"69.9981","TLE_LINE2":"2 55782  69.9981 178.9656 0003385 248.4460 111.6375 15.69919988 19447","APOAPSIS":"361.408","OBJECT_NAME":"STARLINK-5826","OBJECT_ID":"2023-028AT","ECCENTRICITY":"0.00033850","REF_FRAME":"TEME","TIME_SYSTEM":"UTC","ARG_OF_PERICENTER":"248.4460","OBJECT_TYPE":"PAYLOAD","NORAD_CAT_ID":"55782","RCS_SIZE":"LARGE","EPHEMERIS_TYPE":"0","ELEMENT_SET_NO":"999","MEAN_ELEMENT_THEORY":"SGP4","MEAN_MOTION_DDOT":"0.0000000000000","REV_AT_EPOCH":"1944","BSTAR":"0.00000171070000"},{"RCS_SIZE":"LARGE","EPHEMERIS_TYPE":"0","ELEMENT_SET_NO":"999","MEAN_ELEMENT_THEORY":"SGP4","MEAN_MOTION_DDOT":"0.0000000000000","REV_AT_EPOCH":"1945","BSTAR":"-0.00002800800000","ECCENTRICITY":"0.00031970","OBJECT_ID":"2023-028AU","REF_FRAME":"TEME","TIME_SYSTEM":"UTC","ARG_OF_PERICENTER":"273.0846","OBJECT_TYPE":"PAYLOAD","NORAD_CAT_ID":"55783","GP_ID":"234655103","FILE":"3946951","DECAY_DATE":null,"CENTER_NAME":"EARTH","PERIAPSIS":"357.053","EPOCH":"2023-07-01T09:51:34.548192","RA_OF_ASC_NODE":"178.7830","INCLINATION":"69.9976","TLE_LINE2":"2 55783  69.9976 178.7830 0003197 273.0846  86.9984 15.69892526 19456","APOAPSIS":"361.360","OBJECT_NAME":"STARLINK-5825","SITE":"AFWTR","PERIOD":"91.726","TLE_LINE1":"1 55783U 23028AU  23182.41081653 -.00003574  00000-0 -28008-4 0  9990","SEMIMAJOR_AXIS":"6737.341","CLASSIFICATION_TYPE":"U","MEAN_MOTION_DOT":"-0.00003574","COUNTRY_CODE":"US","MEAN_MOTION":"15.69892526","LAUNCH_DATE":"2023-03-03","MEAN_ANOMALY":"86.9984"},{"NORAD_CAT_ID":"55784","TIME_SYSTEM":"UTC","OBJECT_ID":"2023-028AV","ECCENTRICITY":"0.00034400","REF_FRAME":"TEME","ARG_OF_PERICENTER":"265.9621","OBJECT_TYPE":"PAYLOAD","MEAN_ELEMENT_THEORY":"SGP4","REV_AT_EPOCH":"1950","BSTAR":"0.00000597030000","MEAN_MOTION_DDOT":"0.0000000000000","RCS_SIZE":"LARGE","EPHEMERIS_TYPE":"0","ELEMENT_SET_NO":"999","COUNTRY_CODE":"US","MEAN_MOTION_DOT":"0.00000505","MEAN_ANOMALY":"94.1181","MEAN_MOTION":"15.69925138","LAUNCH_DATE":"2023-03-03","PERIOD":"91.724","SITE":"AFWTR","CLASSIFICATION_TYPE":"U","SEMIMAJOR_AXIS":"6737.248","TLE_LINE1":"1 55784U 23028AV  23182.72895261  .00000505  00000-0  59703-5 0  9999","TLE_LINE2":"2 55784  69.9970 177.8861 0003440 265.9621  94.1181 15.69925138 19509","APOAPSIS":"361.431","RA_OF_ASC_NODE":"177.8861","INCLINATION":"69.9970","OBJECT_NAME":"STARLINK-5797","PERIAPSIS":"356.796","EPOCH":"2023-07-01T17:29:41.505504","GP_ID":"234655141","DECAY_DATE":null,"FILE":"3946952","CENTER_NAME":"EARTH"},{"RCS_SIZE":"LARGE","ELEMENT_SET_NO":"999","EPHEMERIS_TYPE":"0","MEAN_ELEMENT_THEORY":"SGP4","BSTAR":"-0.00000546130000","REV_AT_EPOCH":"1949","MEAN_MOTION_DDOT":"0.0000000000000","TIME_SYSTEM":"UTC","REF_FRAME":"TEME","OBJECT_ID":"2023-028AW","ECCENTRICITY":"0.00038060","OBJECT_TYPE":"PAYLOAD","ARG_OF_PERICENTER":"266.7989","NORAD_CAT_ID":"55785","EPOCH":"2023-07-01T17:30:09.405792","PERIAPSIS":"356.574","CENTER_NAME":"EARTH","GP_ID":"234654645","FILE":"3946953","DECAY_DATE":null,"APOAPSIS":"361.702","TLE_LINE2":"2 55785  69.9959 177.8868 0003806 266.7989  93.2772 15.69916494 19495","RA_OF_ASC_NODE":"177.8868","INCLINATION":"69.9959","OBJECT_NAME":"STARLINK-5818","PERIOD":"91.725","SITE":"AFWTR","CLASSIFICATION_TYPE":"U","TLE_LINE1":"1 55785U 23028AW  23182.72927553 -.00000870  00000-0 -54613-5 0  9992","SEMIMAJOR_AXIS":"6737.273","COUNTRY_CODE":"US","MEAN_MOTION_DOT":"-0.00000870","MEAN_ANOMALY":"93.2772","LAUNCH_DATE":"2023-03-03","MEAN_MOTION":"15.69916494"},{"CLASSIFICATION_TYPE":"U","TLE_LINE1":"1 55786U 23028AX  23182.41028045 -.00002502  00000-0 -19057-4 0  9993","SEMIMAJOR_AXIS":"6737.308","PERIOD":"91.725","SITE":"AFWTR","MEAN_ANOMALY":"93.5032","LAUNCH_DATE":"2023-03-03","MEAN_MOTION":"15.69904062","COUNTRY_CODE":"US","MEAN_MOTION_DOT":"-0.00002502","EPOCH":"2023-07-01T09:50:48.230880","PERIAPSIS":"356.932","CENTER_NAME":"EARTH","FILE":"3947113","GP_ID":"234659275","DECAY_DATE":null,"OBJECT_NAME":"STARLINK-5823","APOAPSIS":"361.415","TLE_LINE2":"2 55786  69.9980 178.7801 0003327 266.5784  93.5032 15.69904062 19441","RA_OF_ASC_NODE":"178.7801","INCLINATION":"69.9980","OBJECT_TYPE":"PAYLOAD","ARG_OF_PERICENTER":"266.5784","TIME_SYSTEM":"UTC","REF_FRAME":"TEME","ECCENTRICITY":"0.00033270","OBJECT_ID":"2023-028AX","NORAD_CAT_ID":"55786","ELEMENT_SET_NO":"999","EPHEMERIS_TYPE":"0","RCS_SIZE":"LARGE","BSTAR":"-0.00001905700000","REV_AT_EPOCH":"1944","MEAN_MOTION_DDOT":"0.0000000000000","MEAN_ELEMENT_THEORY":"SGP4"},{"OBJECT_NAME":"STARLINK-5811","APOAPSIS":"361.576","TLE_LINE2":"2 55787  69.9981 177.8866 0003602 265.5146  94.5639 15.69912661 19494","INCLINATION":"69.9981","RA_OF_ASC_NODE":"177.8866","EPOCH":"2023-07-01T17:30:00.482400","PERIAPSIS":"356.722","CENTER_NAME":"EARTH","GP_ID":"234655161","FILE":"3946954","DECAY_DATE":null,"MEAN_ANOMALY":"94.5639","LAUNCH_DATE":"2023-03-03","MEAN_MOTION":"15.69912661","COUNTRY_CODE":"US","MEAN_MOTION_DOT":"-0.00000530","CLASSIFICATION_TYPE":"U","TLE_LINE1":"1 55787U 23028AY  23182.72917225 -.00000530  00000-0 -26369-5 0  9999","SEMIMAJOR_AXIS":"6737.284","PERIOD":"91.725","SITE":"AFWTR","BSTAR":"-0.00000263690000","REV_AT_EPOCH":"1949","MEAN_MOTION_DDOT":"0.0000000000000","MEAN_ELEMENT_THEORY":"SGP4","ELEMENT_SET_NO":"999","EPHEMERIS_TYPE":"0","RCS_SIZE":"LARGE","NORAD_CAT_ID":"55787","OBJECT_TYPE":"PAYLOAD","ARG_OF_PERICENTER":"265.5146","TIME_SYSTEM":"UTC","REF_FRAME":"TEME","ECCENTRICITY":"0.00036020","OBJECT_ID":"2023-028AY"},{"COUNTRY_CODE":"US","MEAN_MOTION_DOT":"0.00000341","MEAN_ANOMALY":"90.3383","LAUNCH_DATE":"2023-03-03","MEAN_MOTION":"15.69920543","PERIOD":"91.724","SITE":"AFWTR","CLASSIFICATION_TYPE":"U","SEMIMAJOR_AXIS":"6737.261","TLE_LINE1":"1 55788U 23028AZ  23182.34675862  .00000341  00000-0  46052-5 0  9995","APOAPSIS":"361.447","TLE_LINE2":"2 55788  69.9976 178.9611 0003444 269.7418  90.3383 15.69920543 19433","RA_OF_ASC_NODE":"178.9611","INCLINATION":"69.9976","OBJECT_NAME":"STARLINK-5804","EPOCH":"2023-07-01T08:19:19.944768","PERIAPSIS":"356.806","CENTER_NAME":"EARTH","GP_ID":"234648907","FILE":"3946713","DECAY_DATE":null,"NORAD_CAT_ID":"55788","TIME_SYSTEM":"UTC","REF_FRAME":"TEME","ECCENTRICITY":"0.00034440","OBJECT_ID":"2023-028AZ","OBJECT_TYPE":"PAYLOAD","ARG_OF_PERICENTER":"269.7418","MEAN_ELEMENT_THEORY":"SGP4","BSTAR":"0.00000460520000","REV_AT_EPOCH":"1943","MEAN_MOTION_DDOT":"0.0000000000000","RCS_SIZE":"LARGE","ELEMENT_SET_NO":"999","EPHEMERIS_TYPE":"0"},{"NORAD_CAT_ID":"55789","ARG_OF_PERICENTER":"257.4309","OBJECT_TYPE":"PAYLOAD","TIME_SYSTEM":"UTC","ECCENTRICITY":"0.00035190","OBJECT_ID":"2023-028BA","REF_FRAME":"TEME","REV_AT_EPOCH":"1949","BSTAR":"0.00000283490000","MEAN_MOTION_DDOT":"0.0000000000000","MEAN_ELEMENT_THEORY":"SGP4","EPHEMERIS_TYPE":"0","ELEMENT_SET_NO":"999","RCS_SIZE":"LARGE","MEAN_ANOMALY":"102.6494","MEAN_MOTION":"15.69919682","LAUNCH_DATE":"2023-03-03","COUNTRY_CODE":"US","MEAN_MOTION_DOT":"0.00000128","CLASSIFICATION_TYPE":"U","TLE_LINE1":"1 55789U 23028BA  23182.72853296  .00000128  00000-0  28349-5 0  9999","SEMIMAJOR_AXIS":"6737.264","PERIOD":"91.724","SITE":"AFWTR","OBJECT_NAME":"STARLINK-5815","TLE_LINE2":"2 55789  69.9976 177.8822 0003519 257.4309 102.6494 15.69919682 19490","APOAPSIS":"361.500","RA_OF_ASC_NODE":"177.8822","INCLINATION":"69.9976","PERIAPSIS":"356.758","EPOCH":"2023-07-01T17:29:05.247744","GP_ID":"234654662","DECAY_DATE":null,"FILE":"3946954","CENTER_NAME":"EARTH"}];
